NORAD_CAT_ID,OBJECT_NAME,OBJECT_TYPE,EPOCH,MEAN_MOTION,ECCENTRICITY,INCLINATION,RA_OF_ASC_NODE,ARG_OF_PERICENTER,MEAN_ANOMALY,BSTAR,MEAN_MOTION_DOT,MEAN_MOTION_DDOT,TLE_LINE0,TLE_LINE1,TLE_LINE2,SEMIMAJOR_AXIS,PERIOD,APOGEE,PERIGEE,DECAYED
51464.0,STARLINK-3189,PAYLOAD,2024-03-08 00:06:53,15.08837132,0.0001405,53.218,323.7814,88.4752,271.6401,-2.5642e-05,-6.96e-06,0.0,0 STARLINK-3189,1 51464U 22010J   24068.00478206 -.00000696  00000-0 -25642-4 0  9998,2 51464  53.2180 323.7814 0001405  88.4752 271.6401 15.08837132116819,6917.889,95.438,540.726,538.782,0.0
51464.0,STARLINK-3189,PAYLOAD,2024-03-08 09:39:11,15.08851135,0.0001165,53.2173,321.997,87.1096,273.0029,0.00028952,4.324e-05,0.0,0 STARLINK-3189,1 51464U 22010J   24068.40221700  .00004324  00000-0  28952-3 0  9993,2 51464  53.2173 321.9970 0001165  87.1096 273.0029 15.08851135116871,6917.846,95.437,540.517,538.905,0.0
51464.0,STARLINK-3189,PAYLOAD,2024-03-08 16:00:44,15.08831658,0.0001183,53.2176,320.8081,102.4304,257.6821,-0.00015497,-2.753e-05,0.0,0 STARLINK-3189,1 51464U 22010J   24068.66718305 -.00002753  00000-0 -15497-3 0  9999,2 51464  53.2176 320.8081 0001183 102.4304 257.6821 15.08831658116919,6917.906,95.438,540.589,538.952,0.0
51464.0,STARLINK-3189,PAYLOAD,2024-03-08 23:57:40,15.08840605,0.0001389,53.2182,319.3235,104.2547,255.8599,0.00014059,1.95e-05,0.0,0 STARLINK-3189,1 51464U 22010J   24068.99838037  .00001950  00000-0  14059-3 0  9999,2 51464  53.2182 319.3235 0001389 104.2547 255.8599 15.08840605116966,6917.879,95.438,540.704,538.783,0.0
51464.0,STARLINK-3189,PAYLOAD,2024-03-09 09:29:58,15.08858787,0.0001117,53.217,317.5371,99.0829,261.0289,0.0005416,8.347e-05,0.0,0 STARLINK-3189,1 51464U 22010J   24069.39581473  .00008347  00000-0  54160-3 0  9997,2 51464  53.2170 317.5371 0001117  99.0829 261.0289 15.08858787117020,6917.823,95.436,540.461,538.915,0.0
51464.0,STARLINK-3189,PAYLOAD,2024-03-10 01:23:50,15.08846242,0.000136,53.2158,314.563,84.7365,275.3782,0.00025226,3.73e-05,0.0,0 STARLINK-3189,1 51464U 22010J   24070.05821814  .00003730  00000-0  25226-3 0  9990,2 51464  53.2158 314.5630 0001360  84.7365 275.3782 15.08846242117127,6917.861,95.437,540.667,538.785,0.0
51464.0,STARLINK-3189,PAYLOAD,2024-03-10 09:20:45,15.08859506,0.0001853,53.2156,313.0749,81.2619,278.8583,0.00057837,8.934e-05,0.0,0 STARLINK-3189,1 51464U 22010J   24070.38941534  .00008934  00000-0  57837-3 0  9992,2 51464  53.2156 313.0749 0001853  81.2619 278.8583 15.08859506117226,6917.821,95.436,540.968,538.404,0.0
51464.0,STARLINK-3189,PAYLOAD,2024-03-10 22:03:51,15.0883494,0.0001212,53.216,310.6992,93.9082,266.2049,-0.00014877,-2.654e-05,0.0,0 STARLINK-3189,1 51464U 22010J   24070.91934424 -.00002654  00000-0 -14877-3 0  9993,2 51464  53.2160 310.6992 0001212  93.9082 266.2049 15.08834940117253,6917.896,95.438,540.599,538.922,0.0
51464.0,STARLINK-3189,PAYLOAD,2024-03-11 09:11:33,15.08837945,0.0001359,53.2155,308.6164,88.641,271.4738,0.00086717,0.00013539,0.0,0 STARLINK-3189,1 51464U 22010J   24071.38302341  .00013539  00000-0  86717-3 0  9996,2 51464  53.2155 308.6164 0001359  88.6410 271.4738 15.08837945117377,6917.887,95.438,540.692,538.812,0.0
51464.0,STARLINK-3189,PAYLOAD,2024-03-12 01:05:24,15.08844442,0.0001498,53.2171,305.6429,84.859,275.2573,0.00054657,8.422e-05,0.0,0 STARLINK-3189,1 51464U 22010J   24072.04542338  .00008422  00000-0  54657-3 0  9995,2 51464  53.2171 305.6429 0001498  84.8590 275.2573 15.08844442117422,6917.867,95.437,540.768,538.696,0.0
51464.0,STARLINK-3189,PAYLOAD,2024-03-12 21:45:25,15.0885209,0.0001935,53.2162,301.7766,96.539,263.5823,0.00046806,7.171e-05,0.0,0 STARLINK-3189,1 51464U 22010J   24072.90654158  .00007171  00000-0  46806-3 0  9991,2 51464  53.2162 301.7766 0001935  96.5390 263.5823 15.08852090117603,6917.843,95.437,541.047,538.37,0.0
51464.0,STARLINK-3189,PAYLOAD,2024-03-13 00:56:11,15.0884785,0.000178,53.2164,301.1818,96.4434,263.6761,0.00029745,4.45e-05,0.0,0 STARLINK-3189,1 51464U 22010J   24073.03902186  .00004450  00000-0  29745-3 0  9993,2 51464  53.2164 301.1818 0001780  96.4434 263.6761 15.08847850117579,6917.856,95.437,540.953,538.49,0.0
51464.0,STARLINK-3189,PAYLOAD,2024-03-13 21:36:12,15.08843535,0.0001552,53.2127,297.3153,88.2474,271.8696,0.00013992,1.94e-05,0.0,0 STARLINK-3189,1 51464U 22010J   24073.90014231  .00001940  00000-0  13992-3 0  9992,2 51464  53.2127 297.3153 0001552  88.2474 271.8696 15.08843535117705,6917.87,95.437,540.808,538.661,0.0
51464.0,STARLINK-3189,PAYLOAD,2024-03-14 19:51:36,15.08844903,9.03e-05,53.2148,293.1547,81.5924,278.517,-0.00010268,-1.922e-05,0.0,0 STARLINK-3189,1 51464U 22010J   24074.82750165 -.00001922  00000-0 -10268-3 0  9992,2 51464  53.2148 293.1547 0000903  81.5924 278.5170 15.08844903117840,6917.865,95.437,540.355,539.106,0.0
51464.0,STARLINK-3189,PAYLOAD,2024-03-14 21:26:59,15.08843826,9.59e-05,53.2148,292.8573,82.9035,277.2066,-6.7542e-05,-1.363e-05,0.0,0 STARLINK-3189,1 51464U 22010J   24074.89374211 -.00001363  00000-0 -67542-4 0  9990,2 51464  53.2148 292.8573 0000959  82.9035 277.2066 15.08843826117904,6917.869,95.437,540.397,539.07,0.0
51464.0,STARLINK-3189,PAYLOAD,2024-03-15 00:37:45,15.08842349,0.0001039,53.2143,292.2615,83.2722,276.8388,6.3637e-05,7.25e-06,0.0,0 STARLINK-3189,1 51464U 22010J   24075.02622319  .00000725  00000-0  63637-4 0  9991,2 51464  53.2143 292.2615 0001039  83.2722 276.8388 15.08842349117920,6917.873,95.437,540.457,539.019,0.0
51464.0,STARLINK-3189,PAYLOAD,2024-03-16 00:28:32,15.08851686,0.0001268,53.2154,287.7991,103.5966,256.5168,-0.00022418,-3.855e-05,0.0,0 STARLINK-3189,1 51464U 22010J   24076.01981889 -.00003855  00000-0 -22418-3 0  9991,2 51464  53.2154 287.7991 0001268 103.5966 256.5168 15.08851686118025,6917.845,95.437,540.587,538.832,0.0
51464.0,STARLINK-3189,PAYLOAD,2024-03-16 13:11:38,15.08837021,0.0001182,53.2153,285.4201,103.7731,256.3393,0.00010585,1.397e-05,0.0,0 STARLINK-3189,1 51464U 22010J   24076.54974777  .00001397  00000-0  10585-3 0  9996,2 51464  53.2153 285.4201 0001182 103.7731 256.3393 15.08837021118104,6917.889,95.438,540.572,538.937,0.0
51464.0,STARLINK-3189,PAYLOAD,2024-03-16 21:08:34,15.08835928,0.0001168,53.2153,283.9326,104.0835,256.0287,6.9057e-05,8.11e-06,0.0,0 STARLINK-3189,1 51464U 22010J   24076.88094917  .00000811  00000-0  69057-4 0  9991,2 51464  53.2153 283.9326 0001168 104.0835 256.0287 15.08835928118202,6917.893,95.438,540.566,538.95,0.0
51464.0,STARLINK-3189,PAYLOAD,2024-03-17 00:19:20,15.08837759,0.0001212,53.215,283.3368,107.058,253.0545,9.7622e-05,1.266e-05,0.0,0 STARLINK-3189,1 51464U 22010J   24077.01342851  .00001266  00000-0  97622-4 0  9994,2 51464  53.2150 283.3368 0001212 107.0580 253.0545 15.08837759118229,6917.887,95.438,540.591,538.914,0.0
51464.0,STARLINK-3189,PAYLOAD,2024-03-17 20:59:20,15.08843168,0.0001254,53.2154,279.4705,88.8,271.3135,0.00017085,2.432e-05,0.0,0 STARLINK-3189,1 51464U 22010J   24077.87454768  .00002432  00000-0  17085-3 0  9999,2 51464  53.2154 279.4705 0001254  88.8000 271.3135 15.08843168118301,6917.871,95.437,540.603,538.868,0.0
51464.0,STARLINK-3189,PAYLOAD,2024-03-18 12:53:12,15.08841692,0.000127,53.2155,276.4988,99.5032,260.6104,0.0001307,1.793e-05,0.0,0 STARLINK-3189,1 51464U 22010J   24078.53694836  .00001793  00000-0  13070-3 0  9994,2 51464  53.2155 276.4988 0001270  99.5032 260.6104 15.08841692118457,6917.875,95.437,540.619,538.862,0.0
51464.0,STARLINK-3189,PAYLOAD,2024-03-18 20:50:08,15.08841353,0.0001313,53.2157,275.0122,95.4337,264.6805,0.00013694,1.892e-05,0.0,0 STARLINK-3189,1 51464U 22010J   24078.86814926  .00001892  00000-0  13694-3 0  9996,2 51464  53.2157 275.0122 0001313  95.4337 264.6805 15.08841353118451,6917.876,95.437,540.65,538.833,0.0
51464.0,STARLINK-3189,PAYLOAD,2024-03-19 19:05:31,15.08850503,0.0001306,53.2158,270.8503,92.2246,267.8896,0.00015703,2.213e-05,0.0,0 STARLINK-3189,1 51464U 22010J   24079.79550407  .00002213  00000-0  15703-3 0  9991,2 51464  53.2158 270.8503 0001306  92.2246 267.8896 15.08850503118647,6917.848,95.437,540.617,538.81,0.0
51464.0,STARLINK-3189,PAYLOAD,2024-03-20 18:56:19,15.08837825,0.0001186,53.2151,266.3895,104.9384,255.1739,4.696e-05,4.6e-06,0.0,0 STARLINK-3189,1 51464U 22010J   24080.78910954  .00000460  00000-0  46960-4 0  9991,2 51464  53.2151 266.3895 0001186 104.9384 255.1739 15.08837825118743,6917.887,95.438,540.572,538.932,0.0
51464.0,STARLINK-3189,PAYLOAD,2024-03-20 22:07:05,15.08838231,0.0001181,53.215,265.7945,105.8966,254.2156,4.7409e-05,4.67e-06,0.0,0 STARLINK-3189,1 51464U 22010J   24080.92158934  .00000467  00000-0  47409-4 0  9995,2 51464  53.2150 265.7945 0001181 105.8966 254.2156 15.08838231118815,6917.886,95.438,540.568,538.934,0.0
51464.0,STARLINK-3189,PAYLOAD,2024-03-21 12:25:33,15.08837072,0.0001245,53.2147,263.1182,114.2578,245.8544,3.505e-05,2.7e-06,0.0,0 STARLINK-3189,1 51464U 22010J   24081.51775060  .00000270  00000-0  35050-4 0  9997,2 51464  53.2147 263.1182 0001245 114.2578 245.8544 15.08837072118909,6917.889,95.438,540.616,538.893,0.0
51464.0,STARLINK-3189,PAYLOAD,2024-03-21 18:47:05,15.0885235,0.0001096,53.2156,261.928,83.7965,276.3152,-2.7896e-05,-7.32e-06,0.0,0 STARLINK-3189,1 51464U 22010J   24081.78270411 -.00000732  00000-0 -27896-4 0  9990,2 51464  53.2156 261.9280 0001096  83.7965 276.3152 15.08852350118896,6917.843,95.437,540.466,538.949,0.0
51464.0,STARLINK-3189,PAYLOAD,2024-03-22 12:16:20,15.08839801,0.0001255,53.2155,258.6562,83.5517,276.5618,0.0001804,2.584e-05,0.0,0 STARLINK-3189,1 51464U 22010J   24082.51134997  .00002584  00000-0  18040-3 0  9995,2 51464  53.2155 258.6562 0001255  83.5517 276.5618 15.08839801119008,6917.881,95.438,540.614,538.878,0.0
51464.0,STARLINK-3189,PAYLOAD,2024-03-22 21:48:39,15.08839487,0.0001272,53.2152,256.8714,82.2027,277.9109,0.00013471,1.857e-05,0.0,0 STARLINK-3189,1 51464U 22010J   24082.90879038  .00001857  00000-0  13471-3 0  9995,2 51464  53.2152 256.8714 0001272  82.2027 277.9109 15.08839487119117,6917.882,95.438,540.627,538.867,0.0
